     2.10           G: GLONASS NAV DATA                     RINEX VERSION / TYPE
teqc  2015Jun23                         20210917 01:26:13UTCPGM / RUN BY / DATE
Linux 2.4.21-27.ELsmp|Opteron|gcc -static|Linux x86_64|=+   COMMENT
  2021     8    24   -4.656612873077D-10                    CORR TO SYSTEM TIME
                                                            END OF HEADER
 4 21  8 25 21 45  0.0 1.017032191157D-04 9.094947017729D-13 7.740000000000D+04
    8.916215332031D+03-2.769063949585D+00 9.313225746155D-10 0.000000000000D+00
    1.182106201172D+04-6.695890426636D-01 2.793967723846D-09 6.000000000000D+00
   -2.074424658203D+04-1.570615768433D+00 1.862645149231D-09 0.000000000000D+00
13 21  8 25 21 45  0.0-5.969498306513D-05-0.000000000000D+00 7.740000000000D+04
   -1.844619873047D+04 1.285767555237D+00 1.862645149231D-09 0.000000000000D+00
    1.156694824219D+04-1.292368888855D+00-0.000000000000D+00-2.000000000000D+00
   -1.329314208984D+04-2.910688400269D+00 1.862645149231D-09 0.000000000000D+00
15 21  8 25 21 45  0.0 1.018736511469D-04 0.000000000000D+00 7.740000000000D+04
   -2.569959472656D+03-1.674359321594D+00 1.862645149231D-09 0.000000000000D+00
    1.668732373047D+04 2.010290145874D+00 1.862645149231D-09 0.000000000000D+00
    1.914533398438D+04-1.980091094971D+00-1.862645149231D-09 0.000000000000D+00
17 21  8 25 21 45  0.0 4.529403522611D-04 2.728484105319D-12 7.740000000000D+04
   -2.570497558594D+03-6.069269180298D-01 1.862645149231D-09 0.000000000000D+00
    1.818267138672D+04-2.355698585510D+00 1.862645149231D-09 4.000000000000D+00
    1.773172412109D+04 2.323616981506D+00-1.862645149231D-09 0.000000000000D+00
18 21  8 25 21 45  0.0 8.819065988064D-05 9.094947017729D-13 7.740000000000D+04
    6.416505859375D+03 1.071968078613D-01 2.793967723846D-09 0.000000000000D+00
    2.449747802734D+04-4.474420547485D-01 3.725290298462D-09-3.000000000000D+00
    2.880306640625D+03 3.582320213318D+00-0.000000000000D+00 0.000000000000D+00
19 21  8 25 21 45  0.0-1.568086445332D-04-9.094947017729D-13 7.740000000000D+04
    1.139350292969D+04 6.958990097046D-01 1.862645149231D-09 0.000000000000D+00
    1.890056884766D+04 1.626331329346D+00 3.725290298462D-09 3.000000000000D+00
   -1.280849218750D+04 3.018745422363D+00 9.313225746155D-10 0.000000000000D+00
14 21  8 25 22 15  0.0 6.805453449488D-05 0.000000000000D+00 7.920000000000D+04
   -1.484952441406D+04 2.420339584351D-01 2.793967723846D-09 0.000000000000D+00
    2.065961621094D+04-1.143646240234D-01 0.000000000000D+00-7.000000000000D+00
   -1.659327636719D+03-3.550938606262D+00 0.000000000000D+00 0.000000000000D+00
 3 21  8 25 22 15  0.0 4.182662814856D-05 0.000000000000D+00 7.920000000000D+04
   -1.488650683594D+04-2.622108459473D+00 9.313225746155D-10 0.000000000000D+00
    7.974013183594D+03-1.037702560425D-01-9.313225746155D-10 5.000000000000D+00
   -1.909898046875D+04 1.991236686707D+00 1.862645149231D-09 0.000000000000D+00
13 21  8 25 22 15  0.0-5.969591438770D-05-0.000000000000D+00 7.920000000000D+04
   -1.595973583984D+04 1.432000160217D+00 9.313225746155D-10 0.000000000000D+00
    8.596607421875D+03-1.997716903687D+00-9.313225746155D-10-2.000000000000D+00
   -1.795095849609D+04-2.231103897095D+00 1.862645149231D-09 0.000000000000D+00
15 21  8 25 22 15  0.0 1.018736511469D-04 0.000000000000D+00 7.920000000000D+04
   -5.018755371094D+03-1.044269561768D+00 1.862645149231D-09 0.000000000000D+00
    2.011243115234D+04 1.748433113098D+00 9.313225746155D-10 0.000000000000D+00
    1.488851123047D+04-2.719143867493D+00-1.862645149231D-09 0.000000000000D+00
17 21  8 25 22 15  0.0 4.529459401965D-04 2.728484105319D-12 7.920000000000D+04
   -4.158210449219D+03-1.161617279053D+00 9.313225746155D-10 0.000000000000D+00
    1.362415039062D+04-2.659485816956D+00 0.000000000000D+00 4.000000000000D+00
    2.117625097656D+04 1.478754043579D+00-1.862645149231D-09 0.000000000000D+00
18 21  8 25 22 15  0.0 8.819252252579D-05 9.094947017729D-13 7.920000000000D+04
    6.243888183594D+03-3.322286605835D-01 2.793967723846D-09 0.000000000000D+00
    2.296496093750D+04-1.227336883545D+00 2.793967723846D-09-3.000000000000D+00
    9.133346679688D+03 3.320300102234D+00-9.313225746155D-10 0.000000000000D+00
19 21  8 25 22 15  0.0-1.568105071783D-04-9.094947017729D-13 7.920000000000D+04
    1.260697167969D+04 6.081352233887D-01 2.793967723846D-09 0.000000000000D+00
    2.106771972656D+04 7.732810974121D-01 3.725290298462D-09 3.000000000000D+00
   -6.950176757812D+03 3.448272705078D+00 0.000000000000D+00 0.000000000000D+00
 4 21  8 25 22 15  0.0 1.017060130835D-04 9.094947017729D-13 8.001000000000D+04
    3.583942871094D+03-3.108268737793D+00 1.862645149231D-09 0.000000000000D+00
    1.095373730469D+04-2.743282318115D-01 9.313225746155D-10 6.000000000000D+00
   -2.273085595703D+04-6.223554611206D-01 2.793967723846D-09 0.000000000000D+00
14 21  8 25 22 45  0.0 6.805453449488D-05 0.000000000000D+00 8.100000000000D+04
   -1.405824121094D+04 5.976057052612D-01 1.862645149231D-09 0.000000000000D+00
    1.974245166016D+04-9.152107238770D-01-0.000000000000D+00-7.000000000000D+00
   -7.904033691406D+03-3.342474937439D+00 9.313225746155D-10 0.000000000000D+00
 3 21  8 25 22 45  0.0 4.182755947113D-05 0.000000000000D+00 8.100000000000D+04
   -1.910365185547D+04-2.024878501892D+00 0.000000000000D+00 0.000000000000D+00
    8.122581542969D+03 2.418766021729D-01-1.862645149231D-09 5.000000000000D+00
   -1.482197021484D+04 2.729941368103D+00 1.862645149231D-09 0.000000000000D+00
 4 21  8 25 22 45  0.0 1.017088070512D-04 1.818989403546D-12 8.100000000000D+04
   -2.091343750000D+03-3.145343780518D+00 9.313225746155D-10 0.000000000000D+00
    1.087354345703D+04 1.873130798340D-01 0.000000000000D+00 6.000000000000D+00
   -2.295574218750D+04 3.740863800049D-01 2.793967723846D-09 0.000000000000D+00
15 21  8 25 22 45  0.0 1.018736511469D-04-0.000000000000D+00 8.100000000000D+04
   -6.354217773438D+03-4.552774429321D-01 2.793967723846D-09 0.000000000000D+00
    2.282037207031D+04 1.219215393066D+00 0.000000000000D+00 0.000000000000D+00
    9.482402343750D+03-3.248756408691D+00-9.313225746155D-10 0.000000000000D+00
17 21  8 25 22 45  0.0 4.529524594545D-04 2.728484105319D-12 8.100000000000D+04
   -6.734192382812D+03-1.686139106750D+00 0.000000000000D+00 0.000000000000D+00
    8.791267089844D+03-2.660303115845D+00-0.000000000000D+00 4.000000000000D+00
    2.298622802734D+04 5.191755294800D-01-1.862645149231D-09 0.000000000000D+00
18 21  8 25 22 45  0.0 8.819438517094D-05 9.094947017729D-13 8.100000000000D+04
    5.125312500000D+03-9.292268753052D-01 2.793967723846D-09 0.000000000000D+00
    2.020701171875D+04-1.795198440552D+00 1.862645149231D-09-3.000000000000D+00
    1.467877685547D+04 2.801269531250D+00-1.862645149231D-09 0.000000000000D+00
19 21  8 25 22 45  0.0-1.568133011460D-04-9.094947017729D-13 8.100000000000D+04
    1.342540136719D+04 2.596473693848D-01 3.725290298462D-09 0.000000000000D+00
    2.169086718750D+04-6.912136077881D-02 3.725290298462D-09 3.000000000000D+00
   -5.549399414062D+02 3.611443519592D+00-0.000000000000D+00 0.000000000000D+00
 3 21  8 25 23 15  0.0 4.182849079370D-05 0.000000000000D+00 8.280000000000D+04
   -2.206334667969D+04-1.240712165833D+00-0.000000000000D+00 0.000000000000D+00
    8.726104003906D+03 3.909807205200D-01-2.793967723846D-09 5.000000000000D+00
   -9.398716308594D+03 3.256667137146D+00 9.313225746155D-10 0.000000000000D+00
14 21  8 25 23 15  0.0 6.805546581745D-05 0.000000000000D+00 8.280000000000D+04
   -1.284804785156D+04 7.048530578613D-01 9.313225746155D-10 0.000000000000D+00
    1.736129980469D+04-1.721835136414D+00-9.313225746155D-10-7.000000000000D+00
   -1.353639990234D+04-2.874967575073D+00 1.862645149231D-09 0.000000000000D+00
 4 21  8 25 23 15  0.0 1.017106696963D-04 1.818989403546D-12 8.280000000000D+04
   -7.553828613281D+03-2.874888420105D+00 9.313225746155D-10 0.000000000000D+00
    1.160265283203D+04 6.068496704102D-01-9.313225746155D-10 6.000000000000D+00
   -2.140170214844D+04 1.341344833374D+00 1.862645149231D-09 0.000000000000D+00
15 21  8 25 23 15  0.0 1.018727198243D-04-0.000000000000D+00 8.280000000000D+04
   -6.742250976562D+03-6.170272827148D-03 2.793967723846D-09 0.000000000000D+00
    2.437387011719D+04 4.783105850220D-01-0.000000000000D+00 0.000000000000D+00
    3.343773437500D+03-3.527708053589D+00-0.000000000000D+00 0.000000000000D+00
16 21  8 25 23 15  0.0-2.025812864304D-05-0.000000000000D+00 8.280000000000D+04
    4.553458007812D+03-7.131528854370D-01 1.862645149231D-09 0.000000000000D+00
    1.637748535156D+04 2.508019447327D+00 9.313225746155D-10-1.000000000000D+00
    1.905487646484D+04-1.971912384033D+00-1.862645149231D-09 0.000000000000D+00
18 21  8 25 23 15  0.0 8.819624781609D-05 9.094947017729D-13 8.280000000000D+04
    2.864155761719D+03-1.583279609680D+00 1.862645149231D-09 0.000000000000D+00
    1.666808251953D+04-2.088208198547D+00 9.313225746155D-10-3.000000000000D+00
    1.908773730469D+04 2.065835952759D+00-1.862645149231D-09 0.000000000000D+00
19 21  8 25 23 15  0.0-1.568160951138D-04-9.094947017729D-13 8.280000000000D+04
    1.340786035156D+04-3.105287551880D-01 3.725290298462D-09 0.000000000000D+00
    2.089455175781D+04-7.861986160278D-01 2.793967723846D-09 3.000000000000D+00
    5.883160644531D+03 3.495576858521D+00-9.313225746155D-10 0.000000000000D+00
 3 21  8 25 23 45  0.0 4.183035343885D-05 9.094947017729D-13 8.460000000000D+04
   -2.352118750000D+04-3.751878738403D-01-9.313225746155D-10 0.000000000000D+00
    9.384656738281D+03 2.991504669189D-01-2.793967723846D-09 5.000000000000D+00
   -3.249583007812D+03 3.531363487244D+00 0.000000000000D+00 0.000000000000D+00
14 21  8 25 23 45  0.0 6.805546581745D-05 0.000000000000D+00 8.460000000000D+04
   -1.166652832031D+04 5.706329345703D-01 0.000000000000D+00 0.000000000000D+00
    1.360899804688D+04-2.420352935791D+00-9.313225746155D-10-7.000000000000D+00
   -1.811984716797D+04-2.184598922729D+00 1.862645149231D-09 0.000000000000D+00
